{"type": "FeatureCollection", "features": [ {"type": "Feature", "properties": {"norad_id": 43010, "name": "FENGYUN 3D", "group": "weather", "lat": -38.09872402800764, "lon": 140.62588674039466, "alt_km": 832.4523526197318, "timestamp": "2025-12-27T05:29:38.836959+00:00", "meta": {"OBJECT_NAME": "FENGYUN 3D", "OBJECT_ID": "2017-072A", "EPOCH": "2025-12-26T23:23:36.685824", "MEAN_MOTION": 14.19688071, "ECCENTRICITY": 0.00016459, "INCLINATION": 98.9917, "RA_OF_ASC_NODE": 327.4993, "ARG_OF_PERICENTER": 144.7263, "MEAN_ANOMALY": 215.4022, "EPHEMERIS_TYPE": 0, "CLASSIFICATION_TYPE": "U", "NORAD_CAT_ID": 43010, "ELEMENT_SET_NO": 999, "REV_AT_EPOCH": 42055, "BSTAR": 0.00011275927, "MEAN_MOTION_DOT": 1.92e-06, "MEAN_MOTION_DDOT": 0}, "tle": {"line1": "1 43010U 17072A   25360.97473016  .00000192  00000+0  11276-3 0  9999", "line2": "2 43010  98.9917 327.4993 0001645 144.7263 215.4022 14.19688071420550"}}, "geometry": {"type": "Point", "coordinates": [140.62588674039466, -38.09872402800764]}}, {"type": "Feature", "properties": {"norad_id": 43013, "name": "NOAA 20 (JPSS-1)", "group": "weather", "lat": 2.1736576701729087, "lon": -62.96707689828573, "alt_km": 828.9145674683186, "timestamp": "2025-12-27T05:29:38.836969+00:00", "meta": {"OBJECT_NAME": "NOAA 20 (JPSS-1)", "OBJECT_ID": "2017-073A", "EPOCH": "2025-12-26T21:01:31.912320", "MEAN_MOTION": 14.19529626, "ECCENTRICITY": 0.00020522, "INCLINATION": 98.7616, "RA_OF_ASC_NODE": 297.0193, "ARG_OF_PERICENTER": 67.1348, "MEAN_ANOMALY": 293.0045, "EPHEMERIS_TYPE": 0, "CLASSIFICATION_TYPE": "U", "NORAD_CAT_ID": 43013, "ELEMENT_SET_NO": 999, "REV_AT_EPOCH": 42002, "BSTAR": 7.979751e-05, "MEAN_MOTION_DOT": 1.24e-06, "MEAN_MOTION_DDOT": 0}, "tle": {"line1": "1 43013U 17073A   25360.87606380  .00000124  00000+0  79798-4 0  9993", "line2": "2 43013  98.7616 297.0193 0002052  67.1348 293.0045 14.19529626420025"}}, "geometry": {"type": "Point", "coordinates": [-62.96707689828573, 2.1736576701729087]}}, {"type": "Feature", "properties": {"norad_id": 43226, "name": "GOES 17", "group": "weather", "lat": 0.0172908280795604, "lon": 88.87567680089653, "alt_km": 35799.458681819844, "timestamp": "2025-12-27T05:29:38.836982+00:00", "meta": {"OBJECT_NAME": "GOES 17", "OBJECT_ID": "2018-022A", "EPOCH": "2025-12-26T13:28:40.537056", "MEAN_MOTION": 1.0027151, "ECCENTRICITY": 0.0003196, "INCLINATION": 0.4913, "RA_OF_ASC_NODE": 89.0151, "ARG_OF_PERICENTER": 191.2344, "MEAN_ANOMALY": 287.726, "EPHEMERIS_TYPE": 0, "CLASSIFICATION_TYPE": "U", "NORAD_CAT_ID": 43226, "ELEMENT_SET_NO": 999, "REV_AT_EPOCH": 2869, "BSTAR": 0, "MEAN_MOTION_DOT": -1.61e-06, "MEAN_MOTION_DDOT": 0}, "tle": {"line1": "1 43226U 18022A   25360.56158029 -.00000161  00000+0  00000+0 0  9999", "line2": "2 43226   0.4913  89.0151 0003196 191.2344 287.7260  1.00271510 28697"}}, "geometry": {"type": "Point", "coordinates": [88.87567680089653, 0.0172908280795604]}}, {"type": "Feature", "properties": {"norad_id": 43491, "name": "FENGYUN 2H", "group": "weather", "lat": 0.14026685670765077, "lon": -102.29810713499181, "alt_km": 35776.2187035842, "timestamp": "2025-12-27T05:29:38.837008+00:00", "meta": {"OBJECT_NAME": "FENGYUN 2H", "OBJECT_ID": "2018-050A", "EPOCH": "2025-12-26T21:58:14.697696", "MEAN_MOTION": 1.00270039, "ECCENTRICITY": 0.00024808, "INCLINATION": 2.5851, "RA_OF_ASC_NODE": 81.1802, "ARG_OF_PERICENTER": 167.1167, "MEAN_ANOMALY": 256.2438, "EPHEMERIS_TYPE": 0, "CLASSIFICATION_TYPE": "U", "NORAD_CAT_ID": 43491, "ELEMENT_SET_NO": 999, "REV_AT_EPOCH": 2771, "BSTAR": 0, "MEAN_MOTION_DOT": -1.08e-06, "MEAN_MOTION_DDOT": 0}, "tle": {"line1": "1 43491U 18050A   25360.91544789 -.00000108  00000+0  00000+0 0  9996", "line2": "2 43491   2.5851  81.1802 0002480 167.1167 256.2438  1.00270039 27716"}}, "geometry": {"type": "Point", "coordinates": [-102.29810713499181, 0.14026685670765077]}}, {"type": "Feature", "properties": {"norad_id": 43689, "name": "METOP-C", "group": "weather", "lat": -63.98655455980731, "lon": -139.49077146745458, "alt_km": 827.7197056823934, "timestamp": "2025-12-27T05:29:38.837030+00:00", "meta": {"OBJECT_NAME": "METOP-C", "OBJECT_ID": "2018-087A", "EPOCH": "2025-12-26T21:35:10.032288", "MEAN_MOTION": 14.21489812, "ECCENTRICITY": 5.343e-05, "INCLINATION": 98.691, "RA_OF_ASC_NODE": 58.4506, "ARG_OF_PERICENTER": 12.0595, "MEAN_ANOMALY": 348.0595, "EPHEMERIS_TYPE": 0, "CLASSIFICATION_TYPE": "U", "NORAD_CAT_ID": 43689, "ELEMENT_SET_NO": 999, "REV_AT_EPOCH": 37035, "BSTAR": 9.0816692e-05, "MEAN_MOTION_DOT": 1.55e-06, "MEAN_MOTION_DDOT": 0}, "tle": {"line1": "1 43689U 18087A   25360.89942167  .00000155  00000+0  90817-4 0  9995", "line2": "2 43689  98.6910  58.4506 0000534  12.0595 348.0595 14.21489812370359"}}, "geometry": {"type": "Point", "coordinates": [-139.49077146745458, -63.98655455980731]}}, {"type": "Feature", "properties": {"norad_id": 43823, "name": "GEO-KOMPSAT-2A", "group": "weather", "lat": 0.005383448763343313, "lon": -53.414692635620355, "alt_km": 35787.86888588218, "timestamp": "2025-12-27T05:29:38.837043+00:00", "meta": {"OBJECT_NAME": "GEO-KOMPSAT-2A", "OBJECT_ID": "2018-100A", "EPOCH": "2025-12-25T12:13:38.614080", "MEAN_MOTION": 1.00268534, "ECCENTRICITY": 2.51e-05, "INCLINATION": 0.0434, "RA_OF_ASC_NODE": 172.7377, "ARG_OF_PERICENTER": 259.9479, "MEAN_ANOMALY": 333.2359, "EPHEMERIS_TYPE": 0, "CLASSIFICATION_TYPE": "U", "NORAD_CAT_ID": 43823, "ELEMENT_SET_NO": 999, "REV_AT_EPOCH": 2588, "BSTAR": 0, "MEAN_MOTION_DOT": -3.22e-06, "MEAN_MOTION_DDOT": 0}, "tle": {"line1": "1 43823U 18100A   25359.50947470 -.00000322  00000+0  00000+0 0  9996", "line2": "2 43823   0.0434 172.7377 0000251 259.9479 333.2359  1.00268534 25880"}}, "geometry": {"type": "Point", "coordinates": [-53.414692635620355, 0.005383448763343313]}}, {"type": "Feature", "properties": {"norad_id": 44387, "name": "METEOR-M2 2", "group": "weather", "lat": 71.79283960373783, "lon": -170.41723775579996, "alt_km": 802.6203136888198, "timestamp": "2025-12-27T05:29:38.837055+00:00", "meta": {"OBJECT_NAME": "METEOR-M2 2", "OBJECT_ID": "2019-038A", "EPOCH": "2025-12-26T22:15:17.042112", "MEAN_MOTION": 14.24297856, "ECCENTRICITY": 0.00018512, "INCLINATION": 98.8991, "RA_OF_ASC_NODE": 340.8305, "ARG_OF_PERICENTER": 122.5244, "MEAN_ANOMALY": 237.6113, "EPHEMERIS_TYPE": 0, "CLASSIFICATION_TYPE": "U", "NORAD_CAT_ID": 44387, "ELEMENT_SET_NO": 999, "REV_AT_EPOCH": 33677, "BSTAR": 0.00014171278, "MEAN_MOTION_DOT": 2.81e-06, "MEAN_MOTION_DDOT": 0}, "tle": {"line1": "1 44387U 19038A   25360.92728058  .00000281  00000+0  14171-3 0  9991", "line2": "2 44387  98.8991 340.8305 0001851 122.5244 237.6113 14.24297856336777"}}, "geometry": {"type": "Point", "coordinates": [-170.41723775579996, 71.79283960373783]}}, {"type": "Feature", "properties": {"norad_id": 47719, "name": "ARKTIKA-M 1", "group": "weather", "lat": 62.607775211111445, "lon": 159.32558095725477, "alt_km": 38870.292629150885, "timestamp": "2025-12-27T05:29:38.837071+00:00", "meta": {"OBJECT_NAME": "ARKTIKA-M 1", "OBJECT_ID": "2021-016A", "EPOCH": "2025-12-26T00:48:12.402432", "MEAN_MOTION": 2.00630537, "ECCENTRICITY": 0.72108, "INCLINATION": 63.1768, "RA_OF_ASC_NODE": 82.1795, "ARG_OF_PERICENTER": 269.1716, "MEAN_ANOMALY": 15.5344, "EPHEMERIS_TYPE": 0, "CLASSIFICATION_TYPE": "U", "NORAD_CAT_ID": 47719, "ELEMENT_SET_NO": 999, "REV_AT_EPOCH": 3531, "BSTAR": 0, "MEAN_MOTION_DOT": -4.1e-07, "MEAN_MOTION_DDOT": 0}, "tle": {"line1": "1 47719U 21016A   25360.03347688 -.00000041  00000+0  00000+0 0  9997", "line2": "2 47719  63.1768  82.1795 7210800 269.1716  15.5344  2.00630537 35313"}}, "geometry": {"type": "Point", "coordinates": [159.32558095725477, 62.607775211111445]}}, {"type": "Feature", "properties": {"norad_id": 49008, "name": "FENGYUN 3E", "group": "weather", "lat": -15.035581769011358, "lon": 179.20767666569677, "alt_km": 829.6405937546906, "timestamp": "2025-12-27T05:29:38.837083+00:00", "meta": {"OBJECT_NAME": "FENGYUN 3E", "OBJECT_ID": "2021-062A", "EPOCH": "2025-12-26T23:30:15.937632", "MEAN_MOTION": 14.19882191, "ECCENTRICITY": 0.00010776, "INCLINATION": 98.7483, "RA_OF_ASC_NODE": 1.3316, "ARG_OF_PERICENTER": 183.8524, "MEAN_ANOMALY": 176.2644, "EPHEMERIS_TYPE": 0, "CLASSIFICATION_TYPE": "U", "NORAD_CAT_ID": 49008, "ELEMENT_SET_NO": 999, "REV_AT_EPOCH": 23214, "BSTAR": 6.1731597e-05, "MEAN_MOTION_DOT": 8.7e-07, "MEAN_MOTION_DDOT": 0}, "tle": {"line1": "1 49008U 21062A   25360.97935113  .00000087  00000+0  61732-4 0  9993", "line2": "2 49008  98.7483   1.3316 0001077 183.8524 176.2644 14.19882191232148"}}, "geometry": {"type": "Point", "coordinates": [179.20767666569677, -15.035581769011358]}}, {"type": "Feature", "properties": {"norad_id": 51850, "name": "GOES 18", "group": "weather", "lat": 0.0058322655708666045, "lon": 41.36714065861835, "alt_km": 35786.82952380488, "timestamp": "2025-12-27T05:29:38.837095+00:00", "meta": {"OBJECT_NAME": "GOES 18", "OBJECT_ID": "2022-021A", "EPOCH": "2025-12-26T22:39:19.764000", "MEAN_MOTION": 1.00270414, "ECCENTRICITY": 5.288e-05, "INCLINATION": 0.0416, "RA_OF_ASC_NODE": 197.7486, "ARG_OF_PERICENTER": 103.7151, "MEAN_ANOMALY": 357.0458, "EPHEMERIS_TYPE": 0, "CLASSIFICATION_TYPE": "U", "NORAD_CAT_ID": 51850, "ELEMENT_SET_NO": 999, "REV_AT_EPOCH": 486, "BSTAR": 0, "MEAN_MOTION_DOT": 1.19e-06, "MEAN_MOTION_DDOT": 0}, "tle": {"line1": "1 51850U 22021A   25360.94397875  .00000119  00000+0  00000+0 0  9993", "line2": "2 51850   0.0416 197.7486 0000528 103.7151 357.0458  1.00270414  4866"}}, "geometry": {"type": "Point", "coordinates": [41.36714065861835, 0.0058322655708666045]}}]}